[{"OBJECT_NAME":"STARLINK-33628","OBJECT_ID":"2025-035R","EPOCH":"2026-03-09T06:33:36.323712","MEAN_MOTION":15.27586768,"ECCENTRICITY":0.00025938,"INCLINATION":42.9927,"RA_OF_ASC_NODE":149.6335,"ARG_OF_PERICENTER":157.1394,"MEAN_ANOMALY":202.9573,"EPHEMERIS_TYPE":0,"CLASSIFICATION_TYPE":"U","NORAD_CAT_ID":63067,"ELEMENT_SET_NO":999,"REV_AT_EPOCH":5966,"BSTAR":0.00084324549,"MEAN_MOTION_DOT":0.00023021,"MEAN_MOTION_DDOT":0},{"OBJECT_NAME":"DELTA 1 DEB","OBJECT_ID":"1977-065GM","EPOCH":"2026-03-08T23:45:45.164448","MEAN_MOTION":14.64470388,"ECCENTRICITY":0.03371849,"INCLINATION":29.2751,"RA_OF_ASC_NODE":329.7443,"ARG_OF_PERICENTER":142.9017,"MEAN_ANOMALY":219.5388,"EPHEMERIS_TYPE":0,"CLASSIFICATION_TYPE":"U","NORAD_CAT_ID":39100,"ELEMENT_SET_NO":999,"REV_AT_EPOCH":71741,"BSTAR":0.001056012,"MEAN_MOTION_DOT":0.00013572,"MEAN_MOTION_DDOT":0}]
